PROMETHEUS 2-3          
1 41855U 16067H   25172.56708701  .00033788  00000+0  61557-3 0  9999
2 41855  98.0707  26.4828 0005227 195.7366 164.3721 15.49399879472268
CORVUS BC2              
1 42846U 17042X   25172.42728356  .00003008  00000+0  22742-3 0  9992
2 42846  97.3737 344.4433 0013383 263.4420  96.5283 15.03001940432810
CORVUS BC1              
1 42847U 17042Y   25172.34320232  .00002313  00000+0  17481-3 0  9997
2 42847  97.3790 344.9088 0011154 234.9631 125.0549 15.03260302432825
MIRATA                  
1 43015U 17073C   25172.50536481  .00060273  00000+0  92112-3 0  9995
2 43015  97.5383  67.8696 0078707  43.8601 316.8863 15.50627463412655
MAKERSAT 0              
1 43016U 17073D   25172.62223727  .00011604  00000+0  46028-3 0  9994
2 43016  97.5184  50.6887 0147753  98.4927 263.3082 15.15923656411564
SIRION PATHFINDER-2     
1 43759U 18099B   25172.11236614  .00003372  00000+0  21114-3 0  9992
2 43759  97.4766 224.7616 0011294 104.9040 255.3441 15.09996150358052
CORVUS BC4              
1 43767U 18099K   25172.55366251  .00003570  00000+0  23286-3 0  9992
2 43767  97.4579 220.9549 0009767 154.5878 205.5833 15.08470522357968
MOVE-II                 
1 43780U 18099Y   25172.43533404  .00317788  00000+0  13900-2 0  9990
2 43780  97.4636 249.0444 0005486 210.4940 149.6011 15.83846394359672
SPACEBEE-7              
1 43816U 18099BL  25172.45099964  .00019675  00000+0  54535-3 0  9994
2 43816  97.4957 242.9056 0006996  82.3453 277.8585 15.36965317358620
SHIELDS 1               
1 43850U 18104B   25172.03800515  .00025189  00000+0  29008-3 0  9999
2 43850  85.0142  28.4776 0008826  99.8111 260.4149 15.61777068363241
SONATE                  
1 44400U 19038Q   25170.34456096  .00489735  11021-3  83765-3 0  9991
2 44400  97.6770 198.7918 0008774 191.2060 168.9025 16.02449050331131
DUCHIFAT-3              
1 44854U 19089C   25172.56402402  .00031777  00000+0  60079-3 0  9991
2 44854  36.9427 278.9432 0003476  49.2316 310.8742 15.47507990304872
M2 PATHFINDER           
1 45727U 20037E   25172.46203000  .00002431  00000+0  18885-3 0  9991
2 45727  97.8124 355.1957 0012275 291.2415  68.7498 15.02249210271293
NETSAT-4                
1 46504U 20068U   25172.37630073  .00008277  00000+0  28179-3 0  9994
2 46504  97.8449 150.8726 0008178 148.3925 211.7807 15.30663789260357
NETSAT-3                
1 46505U 20068V   25172.51121538  .00008009  00000+0  28558-3 0  9996
2 46505  97.8450 149.9279 0007681 157.9174 202.2397 15.29170478260335
NETSAT-1                
1 46506U 20068W   25172.40453733  .00006360  00000+0  26296-3 0  9995
2 46506  97.8479 147.5562 0006656 172.4484 187.6853 15.24340451260162
NETSAT-2                
1 46507U 20068X   25172.36980565  .00008776  00000+0  30215-3 0  9998
2 46507  97.8450 150.3448 0005739 168.5390 191.5981 15.30292562260296
WILDTRACKCUBE-SIMBA     
1 47941U 21022K   25172.55199855  .00020282  00000+0  41622-3 0  9997
2 47941  97.4220  77.3620 0006981 265.2895  94.7557 15.46039653235040
LEDSAT                  
1 49069U 21073D   25172.48215920  .00050303  00000+0  56862-3 0  9999
2 49069  97.3886 254.5298 0007940  40.9251 319.2602 15.62279269213296
GREENCUBE (IO-117)      
1 53109U 22080E   25171.01841591 -.00000003  00000+0  00000+0 0  9997
2 53109  70.1414  64.1899 0008698   7.4365 352.6423  6.42583728 68790
SITRO-AIS 5 (KATYS)     
1 57176U 23091L   25172.60335151  .00005650  00000+0  26542-3 0  9999
2 57176  97.5580 229.5734 0012327 289.4144  70.5758 15.19955612109401
SITRO-AIS 6 (CHIRKIN)   
1 57192U 23091AC  25172.59147609  .00005670  00000+0  26709-3 0  9991
2 57192  97.5578 229.5696 0012284 289.1425  70.8479 15.19859826109407
SITRO-AIS 8 (ANOKHIN)   
1 57193U 23091AD  25172.55374425  .00006475  00000+0  29222-3 0  9993
2 57193  97.5577 230.0619 0011662 288.7000  71.2969 15.21286195109430
SITRO-AIS 7 (FARTUSHNIY)
1 57194U 23091AE  25172.54797537  .00004887  00000+0  23141-3 0  9995
2 57194  97.5578 229.4633 0012109 290.1012  69.8919 15.19755610109390
SITRO-AIS 10 (BURDAEV)  
1 57199U 23091AK  25172.57434000  .00008347  00000+0  34042-3 0  9993
2 57199  97.5589 232.4689 0007596 268.5073  91.5294 15.24674044109588
SITRO-AIS 9 (SHCHUKIN)  
1 57201U 23091AM  25172.59355347  .00007767  00000+0  31881-3 0  9998
2 57201  97.5586 232.3980 0007581 268.8729  91.1640 15.24482083109588
SITRO-AIS 12 (SMIRENNIY)
1 57204U 23091AQ  25172.57405635  .00008226  00000+0  33544-3 0  9994
2 57204  97.5595 232.6656 0007535 261.0440  98.9944 15.24684707109598
SITRO-AIS 11 (SHEFFER)  
1 57208U 23091AU  25172.59104827  .00007779  00000+0  31548-3 0  9993
2 57208  97.5593 232.7748 0007387 261.3336  98.7065 15.24890528109609
VERONIKA                
1 58261U 23174F   25172.48777192  .00131454  00000+0  91985-3 0  9993
2 58261  97.4112 259.4073 0001959 286.8400  73.2649 15.73856237 90557
ROBUSTA-1E (ENSO)       
1 58470U 23185J   25172.53097526  .00040191  00000+0  55475-3 0  9990
2 58470  97.3732 248.0427 0006176  50.5285 309.6516 15.57062688 86898
SITRO-AIS 25            
1 59066U 24039R   25172.55293550  .00004242  00000+0  35828-3 0  9995
2 59066  95.3754 348.1561 0156747 144.8094 216.3604 14.89238744 70974
SITRO-AIS 26            
1 59067U 24039S   25172.58001575  .00004567  00000+0  38686-3 0  9998
2 59067  95.3757 348.1326 0156950 144.9373 216.2306 14.89093823 70979
SITRO-AIS 27            
1 59068U 24039T   25172.57242272  .00004833  00000+0  40649-3 0  9997
2 59068  95.3757 348.2556 0156247 144.2879 216.8918 14.89417647 70989
SITRO-AIS 28            
1 59071U 24039U   25172.55914870  .00004491  00000+0  37761-3 0  9990
2 59071  95.3757 348.2738 0156097 144.2613 216.9181 14.89457436 70987
GRBBETA                 
1 60237U 24128C   25172.58058750  .00002976  00000+0  23081-3 0  9990
2 60237  61.9926  37.7133 0052882  60.2428 300.3909 15.02730886 52005
OOV-CUBE (TUBSAT-30)    
1 60240U 24128F   25172.59324809  .00001854  00000+0  15938-3 0  9992
2 60240  61.9970  40.6385 0052963  57.1323 303.4848 15.00319888 51962
ROBUSTA-3A (MEDITERRAN*)
1 60243U 24128J   25172.33770685  .00004860  00000+0  34749-3 0  9995
2 60243  61.9896  37.5468 0051642  54.1267 306.4604 15.04804371 51992
LASARSAT                
1 62391U 24247Q   25172.16337109  .00010030  00000+0  39093-3 0  9997
2 62391  44.9832  96.8390 0007308 120.6236 239.5368 15.26205308 27834
CROCUBE                 
1 62394U 24247T   25172.15601566  .00010473  00000+0  40526-3 0  9994
2 62394  44.9778  96.7644 0007675 121.1593 239.0043 15.26401746 27835
